{"fetched_at":"2026-07-06T08:46:43.220Z","source":"https://celestrak.org/NORAD/elements/gp.php?GROUP=spire&FORMAT=JSON","constellation":"spire","records":[{"OBJECT_NAME":"LEMUR-2-LEIA-PHILIP","OBJECT_ID":"2025-052AN","EPOCH":"2026-07-05T05:55:04.779840","CLASSIFICATION_TYPE":"U","MEAN_MOTION":14.97370821,"ECCENTRICITY":0.000468,"INCLINATION":97.6815,"RA_OF_ASC_NODE":77.8917,"ARG_OF_PERICENTER":146.1109,"MEAN_ANOMALY":214.0413,"EPHEMERIS_TYPE":0,"NORAD_CAT_ID":63246,"ELEMENT_SET_NO":999,"REV_AT_EPOCH":7137,"BSTAR":0.0002344,"MEAN_MOTION_DOT":0.00002666,"MEAN_MOTION_DDOT":0},{"OBJECT_NAME":"LEMUR-2-LIA-MARTIN","OBJECT_ID":"2025-052AQ","EPOCH":"2026-07-05T05:53:08.152800","CLASSIFICATION_TYPE":"U","MEAN_MOTION":14.97964934,"ECCENTRICITY":0.0005019,"INCLINATION":97.6859,"RA_OF_ASC_NODE":78.3919,"ARG_OF_PERICENTER":115.4192,"MEAN_ANOMALY":244.755,"EPHEMERIS_TYPE":0,"NORAD_CAT_ID":63248,"ELEMENT_SET_NO":999,"REV_AT_EPOCH":7138,"BSTAR":0.00076625,"MEAN_MOTION_DOT":0.0000899,"MEAN_MOTION_DDOT":0},{"OBJECT_NAME":"LEMUR-2-DELOITTE-1","OBJECT_ID":"2025-052BB","EPOCH":"2026-07-05T06:58:52.839840","CLASSIFICATION_TYPE":"U","MEAN_MOTION":14.97735353,"ECCENTRICITY":0.0002298,"INCLINATION":97.6885,"RA_OF_ASC_NODE":78.7686,"ARG_OF_PERICENTER":65.6875,"MEAN_ANOMALY":294.4587,"EPHEMERIS_TYPE":0,"NORAD_CAT_ID":63259,"ELEMENT_SET_NO":999,"REV_AT_EPOCH":7140,"BSTAR":0.00055909,"MEAN_MOTION_DOT":0.00006501,"MEAN_MOTION_DDOT":0},{"OBJECT_NAME":"LEMUR-2-EMERSONROSE","OBJECT_ID":"2025-052BD","EPOCH":"2026-07-05T04:21:21.662208","CLASSIFICATION_TYPE":"U","MEAN_MOTION":14.99227224,"ECCENTRICITY":0.0002629,"INCLINATION":97.6867,"RA_OF_ASC_NODE":79.2519,"ARG_OF_PERICENTER":74.7094,"MEAN_ANOMALY":285.442,"EPHEMERIS_TYPE":0,"NORAD_CAT_ID":63261,"ELEMENT_SET_NO":999,"REV_AT_EPOCH":7143,"BSTAR":0.00060575,"MEAN_MOTION_DOT":0.00007328,"MEAN_MOTION_DDOT":0},{"OBJECT_NAME":"LEMUR-2-MARACHE-FRAN","OBJECT_ID":"2025-052BE","EPOCH":"2026-07-05T05:03:59.834016","CLASSIFICATION_TYPE":"U","MEAN_MOTION":15.00269174,"ECCENTRICITY":0.0004394,"INCLINATION":97.6875,"RA_OF_ASC_NODE":79.6354,"ARG_OF_PERICENTER":300.0229,"MEAN_ANOMALY":60.0558,"EPHEMERIS_TYPE":0,"NORAD_CAT_ID":63262,"ELEMENT_SET_NO":999,"REV_AT_EPOCH":7146,"BSTAR":0.00066966,"MEAN_MOTION_DOT":0.00008333,"MEAN_MOTION_DDOT":0},{"OBJECT_NAME":"LEMUR-2-THEFALCONER","OBJECT_ID":"2025-052BG","EPOCH":"2026-07-05T06:04:30.476064","CLASSIFICATION_TYPE":"U","MEAN_MOTION":14.97522093,"ECCENTRICITY":0.0001019,"INCLINATION":97.684,"RA_OF_ASC_NODE":78.3312,"ARG_OF_PERICENTER":28.6348,"MEAN_ANOMALY":331.493,"EPHEMERIS_TYPE":0,"NORAD_CAT_ID":63264,"ELEMENT_SET_NO":999,"REV_AT_EPOCH":7139,"BSTAR":0.00061313,"MEAN_MOTION_DOT":0.00007097,"MEAN_MOTION_DDOT":0},{"OBJECT_NAME":"LEMUR-2-UNTITLED-SC","OBJECT_ID":"2025-061A","EPOCH":"2026-07-05T00:07:29.629920","CLASSIFICATION_TYPE":"U","MEAN_MOTION":15.13600053,"ECCENTRICITY":0.0018114,"INCLINATION":97.565,"RA_OF_ASC_NODE":161.2388,"ARG_OF_PERICENTER":198.3571,"MEAN_ANOMALY":161.7008,"EPHEMERIS_TYPE":0,"NORAD_CAT_ID":63351,"ELEMENT_SET_NO":999,"REV_AT_EPOCH":7028,"BSTAR":0.00031952,"MEAN_MOTION_DOT":0.00005692,"MEAN_MOTION_DDOT":0},{"OBJECT_NAME":"LEMUR-2-ESPERANZA","OBJECT_ID":"2025-061B","EPOCH":"2026-07-05T09:04:09.335712","CLASSIFICATION_TYPE":"U","MEAN_MOTION":15.13705012,"ECCENTRICITY":0.0017779,"INCLINATION":97.5655,"RA_OF_ASC_NODE":161.7064,"ARG_OF_PERICENTER":195.9184,"MEAN_ANOMALY":164.1491,"EPHEMERIS_TYPE":0,"NORAD_CAT_ID":63352,"ELEMENT_SET_NO":999,"REV_AT_EPOCH":7034,"BSTAR":0.00041913,"MEAN_MOTION_DOT":0.0000751,"MEAN_MOTION_DDOT":0},{"OBJECT_NAME":"LEMUR-2-KREMPEL-BRO2","OBJECT_ID":"2025-061C","EPOCH":"2026-07-05T00:04:27.268032","CLASSIFICATION_TYPE":"U","MEAN_MOTION":15.14131233,"ECCENTRICITY":0.001888,"INCLINATION":97.5704,"RA_OF_ASC_NODE":161.8905,"ARG_OF_PERICENTER":190.0662,"MEAN_ANOMALY":170.0194,"EPHEMERIS_TYPE":0,"NORAD_CAT_ID":63353,"ELEMENT_SET_NO":999,"REV_AT_EPOCH":7030,"BSTAR":0.00031318,"MEAN_MOTION_DOT":0.00005664,"MEAN_MOTION_DDOT":0},{"OBJECT_NAME":"LEMUR-2-THERMORAPTOR","OBJECT_ID":"2025-061D","EPOCH":"2026-07-05T09:08:12.881760","CLASSIFICATION_TYPE":"U","MEAN_MOTION":15.14217282,"ECCENTRICITY":0.0018692,"INCLINATION":97.5707,"RA_OF_ASC_NODE":162.345,"ARG_OF_PERICENTER":187.3934,"MEAN_ANOMALY":172.7024,"EPHEMERIS_TYPE":0,"NORAD_CAT_ID":63354,"ELEMENT_SET_NO":999,"REV_AT_EPOCH":7036,"BSTAR":0.00027979,"MEAN_MOTION_DOT":0.00005064,"MEAN_MOTION_DDOT":0},{"OBJECT_NAME":"LEMUR-2-NEUROSPICY","OBJECT_ID":"2025-061E","EPOCH":"2026-07-04T21:19:21.380160","CLASSIFICATION_TYPE":"U","MEAN_MOTION":15.14329215,"ECCENTRICITY":0.0016383,"INCLINATION":97.5633,"RA_OF_ASC_NODE":161.4679,"ARG_OF_PERICENTER":192.3209,"MEAN_ANOMALY":167.7625,"EPHEMERIS_TYPE":0,"NORAD_CAT_ID":63355,"ELEMENT_SET_NO":999,"REV_AT_EPOCH":7029,"BSTAR":0.00032991,"MEAN_MOTION_DOT":0.00005998,"MEAN_MOTION_DDOT":0},{"OBJECT_NAME":"LEMUR-2-TILLINFINITY","OBJECT_ID":"2025-061F","EPOCH":"2026-07-05T09:06:06.888960","CLASSIFICATION_TYPE":"U","MEAN_MOTION":15.14918475,"ECCENTRICITY":0.0018031,"INCLINATION":97.562,"RA_OF_ASC_NODE":162.2589,"ARG_OF_PERICENTER":178.7002,"MEAN_ANOMALY":181.428,"EPHEMERIS_TYPE":0,"NORAD_CAT_ID":63356,"ELEMENT_SET_NO":999,"REV_AT_EPOCH":7039,"BSTAR":0.0002775,"MEAN_MOTION_DOT":0.00005122,"MEAN_MOTION_DDOT":0},{"OBJECT_NAME":"LEMUR-2-LANGER2SPACE","OBJECT_ID":"2025-061H","EPOCH":"2026-07-04T23:43:47.692416","CLASSIFICATION_TYPE":"U","MEAN_MOTION":15.14416285,"ECCENTRICITY":0.0016329,"INCLINATION":97.5628,"RA_OF_ASC_NODE":161.5885,"ARG_OF_PERICENTER":189.9761,"MEAN_ANOMALY":170.1149,"EPHEMERIS_TYPE":0,"NORAD_CAT_ID":63358,"ELEMENT_SET_NO":999,"REV_AT_EPOCH":7031,"BSTAR":0.00028904,"MEAN_MOTION_DOT":0.00005259,"MEAN_MOTION_DDOT":0},{"OBJECT_NAME":"LEMUR-2-BALTO","OBJECT_ID":"2025-052BH","EPOCH":"2026-07-05T06:17:54.104928","CLASSIFICATION_TYPE":"U","MEAN_MOTION":15.00297759,"ECCENTRICITY":0.0005789,"INCLINATION":97.6924,"RA_OF_ASC_NODE":79.6648,"ARG_OF_PERICENTER":5.9502,"MEAN_ANOMALY":354.179,"EPHEMERIS_TYPE":0,"NORAD_CAT_ID":63395,"ELEMENT_SET_NO":999,"REV_AT_EPOCH":7147,"BSTAR":0.00074654,"MEAN_MOTION_DOT":0.00009307,"MEAN_MOTION_DDOT":0},{"OBJECT_NAME":"LEMUR-2-KRISH","OBJECT_ID":"2025-135AK","EPOCH":"2026-07-05T06:20:08.990016","CLASSIFICATION_TYPE":"U","MEAN_MOTION":14.96384157,"ECCENTRICITY":0.0001642,"INCLINATION":97.7758,"RA_OF_ASC_NODE":301.0176,"ARG_OF_PERICENTER":104.1888,"MEAN_ANOMALY":255.9516,"EPHEMERIS_TYPE":0,"NORAD_CAT_ID":64561,"ELEMENT_SET_NO":999,"REV_AT_EPOCH":5662,"BSTAR":0.00079449,"MEAN_MOTION_DOT":0.00008948,"MEAN_MOTION_DDOT":0}]}
